[{"OBJECT_NAME":"STARLINK-1561","OBJECT_ID":"2020-055AF","EPOCH":"2023-06-04T22:00:00.999936","MEAN_MOTION":15.78514271,"ECCENTRICITY":6.31e-5,"INCLINATION":53.0438,"RA_OF_ASC_NODE":302.62,"ARG_OF_PERICENTER":64.1784,"MEAN_ANOMALY":232.595,"EPHEMERIS_TYPE":0,"CLASSIFICATION_TYPE":"U","NORAD_CAT_ID":46056,"ELEMENT_SET_NO":999,"REV_AT_EPOCH":15676,"BSTAR":-0.00228,"MEAN_MOTION_DOT":-0.00387093,"MEAN_MOTION_DDOT":0},{"OBJECT_NAME":"STARLINK-1564","OBJECT_ID":"2020-055AH","EPOCH":"2023-06-04T21:50:56.852736","MEAN_MOTION":15.06400709,"ECCENTRICITY":9.96e-5,"INCLINATION":53.0541,"RA_OF_ASC_NODE":325.2051,"ARG_OF_PERICENTER":59.6737,"MEAN_ANOMALY":300.435,"EPHEMERIS_TYPE":0,"CLASSIFICATION_TYPE":"U","NORAD_CAT_ID":46058,"ELEMENT_SET_NO":999,"REV_AT_EPOCH":15698,"BSTAR":0.00037686,"MEAN_MOTION_DOT":5.336e-5,"MEAN_MOTION_DDOT":0},{"OBJECT_NAME":"STARLINK-1570","OBJECT_ID":"2020-055AJ","EPOCH":"2023-06-04T20:26:01.143168","MEAN_MOTION":15.06392403,"ECCENTRICITY":7.47e-5,"INCLINATION":53.0546,"RA_OF_ASC_NODE":325.4671,"ARG_OF_PERICENTER":98.8217,"MEAN_ANOMALY":261.2856,"EPHEMERIS_TYPE":0,"CLASSIFICATION_TYPE":"U","NORAD_CAT_ID":46059,"ELEMENT_SET_NO":999,"REV_AT_EPOCH":15693,"BSTAR":0.00020165,"MEAN_MOTION_DOT":2.723e-5,"MEAN_MOTION_DDOT":0},{"OBJECT_NAME":"STARLINK-1572","OBJECT_ID":"2020-055AK","EPOCH":"2023-06-05T04:18:24.630336","MEAN_MOTION":15.06403729,"ECCENTRICITY":8.35e-5,"INCLINATION":53.0536,"RA_OF_ASC_NODE":323.9991,"ARG_OF_PERICENTER":108.2281,"MEAN_ANOMALY":251.8799,"EPHEMERIS_TYPE":0,"CLASSIFICATION_TYPE":"U","NORAD_CAT_ID":46060,"ELEMENT_SET_NO":999,"REV_AT_EPOCH":15649,"BSTAR":0.000456,"MEAN_MOTION_DOT":6.518e-5,"MEAN_MOTION_DDOT":0},{"OBJECT_NAME":"STARLINK-1573","OBJECT_ID":"2020-055AL","EPOCH":"2023-06-04T21:45:38.079936","MEAN_MOTION":15.06409249,"ECCENTRICITY":0.0001066,"INCLINATION":53.0541,"RA_OF_ASC_NODE":325.2187,"ARG_OF_PERICENTER":62.707,"MEAN_ANOMALY":297.4028,"EPHEMERIS_TYPE":0,"CLASSIFICATION_TYPE":"U","NORAD_CAT_ID":46061,"ELEMENT_SET_NO":999,"REV_AT_EPOCH":15698,"BSTAR":0.00099387,"MEAN_MOTION_DOT":0.00014557,"MEAN_MOTION_DDOT":0},{"OBJECT_NAME":"STARLINK-1574","OBJECT_ID":"2020-055AM","EPOCH":"2023-06-04T20:57:52.070976","MEAN_MOTION":15.06394631,"ECCENTRICITY":9.47e-5,"INCLINATION":53.0539,"RA_OF_ASC_NODE":325.3726,"ARG_OF_PERICENTER":113.9305,"MEAN_ANOMALY":246.1784,"EPHEMERIS_TYPE":0,"CLASSIFICATION_TYPE":"U","NORAD_CAT_ID":46062,"ELEMENT_SET_NO":999,"REV_AT_EPOCH":15694,"BSTAR":0.00027578,"MEAN_MOTION_DOT":3.828e-5,"MEAN_MOTION_DDOT":0},{"OBJECT_NAME":"STARLINK-1577","OBJECT_ID":"2020-055AN","EPOCH":"2023-06-04T20:52:33.610944","MEAN_MOTION":15.06400331,"ECCENTRICITY":7.27e-5,"INCLINATION":53.054,"RA_OF_ASC_NODE":325.3846,"ARG_OF_PERICENTER":87.6633,"MEAN_ANOMALY":272.444,"EPHEMERIS_TYPE":0,"CLASSIFICATION_TYPE":"U","NORAD_CAT_ID":46063,"ELEMENT_SET_NO":999,"REV_AT_EPOCH":15697,"BSTAR":0.00082769,"MEAN_MOTION_DOT":0.00012069,"MEAN_MOTION_DDOT":0},{"OBJECT_NAME":"STARLINK-1583","OBJECT_ID":"2020-055AP","EPOCH":"2023-06-05T04:02:29.030784","MEAN_MOTION":15.06411243,"ECCENTRICITY":0.0001174,"INCLINATION":53.0549,"RA_OF_ASC_NODE":324.0451,"ARG_OF_PERICENTER":70.5111,"MEAN_ANOMALY":289.6005,"EPHEMERIS_TYPE":0,"CLASSIFICATION_TYPE":"U","NORAD_CAT_ID":46064,"ELEMENT_SET_NO":999,"REV_AT_EPOCH":15649,"BSTAR":0.00064599,"MEAN_MOTION_DOT":9.356e-5,"MEAN_MOTION_DDOT":0},{"OBJECT_NAME":"STARLINK-1515","OBJECT_ID":"2020-055AQ","EPOCH":"2023-06-04T19:55:28.282944","MEAN_MOTION":15.06391932,"ECCENTRICITY":0.0001106,"INCLINATION":53.0557,"RA_OF_ASC_NODE":305.5607,"ARG_OF_PERICENTER":97.8561,"MEAN_ANOMALY":262.2553,"EPHEMERIS_TYPE":0,"CLASSIFICATION_TYPE":"U","NORAD_CAT_ID":46065,"ELEMENT_SET_NO":999,"REV_AT_EPOCH":15723,"BSTAR":0.00020223,"MEAN_MOTION_DOT":2.731e-5,"MEAN_MOTION_DDOT":0},{"OBJECT_NAME":"STARLINK-1525","OBJECT_ID":"2020-055AR","EPOCH":"2023-06-04T20:02:08.121408","MEAN_MOTION":15.06393111,"ECCENTRICITY":0.0001088,"INCLINATION":53.0544,"RA_OF_ASC_NODE":305.5408,"ARG_OF_PERICENTER":105.7779,"MEAN_ANOMALY":254.333,"EPHEMERIS_TYPE":0,"CLASSIFICATION_TYPE":"U","NORAD_CAT_ID":46066,"ELEMENT_SET_NO":999,"REV_AT_EPOCH":15724,"BSTAR":0.00017445,"MEAN_MOTION_DOT":2.318e-5,"MEAN_MOTION_DDOT":0},{"OBJECT_NAME":"STARLINK-1529","OBJECT_ID":"2020-055AS","EPOCH":"2023-06-05T02:28:14.660544","MEAN_MOTION":15.06400947,"ECCENTRICITY":9.07e-5,"INCLINATION":53.0547,"RA_OF_ASC_NODE":304.3299,"ARG_OF_PERICENTER":73.0459,"MEAN_ANOMALY":287.0629,"EPHEMERIS_TYPE":0,"CLASSIFICATION_TYPE":"U","NORAD_CAT_ID":46067,"ELEMENT_SET_NO":999,"REV_AT_EPOCH":15675,"BSTAR":0.00076482,"MEAN_MOTION_DOT":0.00011129,"MEAN_MOTION_DDOT":0},{"OBJECT_NAME":"STARLINK-1532","OBJECT_ID":"2020-055AT","EPOCH":"2023-06-05T02:44:09.669984","MEAN_MOTION":15.06403336,"ECCENTRICITY":9.05e-5,"INCLINATION":53.0544,"RA_OF_ASC_NODE":304.2792,"ARG_OF_PERICENTER":79.6381,"MEAN_ANOMALY":280.471,"EPHEMERIS_TYPE":0,"CLASSIFICATION_TYPE":"U","NORAD_CAT_ID":46068,"ELEMENT_SET_NO":999,"REV_AT_EPOCH":15675,"BSTAR":0.0014115,"MEAN_MOTION_DOT":0.00020807,"MEAN_MOTION_DDOT":0},{"OBJECT_NAME":"STARLINK-1533","OBJECT_ID":"2020-055AU","EPOCH":"2023-06-04T19:09:03.171168","MEAN_MOTION":15.06393791,"ECCENTRICITY":8.28e-5,"INCLINATION":53.0543,"RA_OF_ASC_NODE":305.7076,"ARG_OF_PERICENTER":88.1617,"MEAN_ANOMALY":271.9466,"EPHEMERIS_TYPE":0,"CLASSIFICATION_TYPE":"U","NORAD_CAT_ID":46069,"ELEMENT_SET_NO":999,"REV_AT_EPOCH":15725,"BSTAR":0.00058995,"MEAN_MOTION_DOT":8.515e-5,"MEAN_MOTION_DDOT":0},{"OBJECT_NAME":"STARLINK-1536","OBJECT_ID":"2020-055AV","EPOCH":"2023-06-04T16:19:12.660960","MEAN_MOTION":15.06393289,"ECCENTRICITY":9.22e-5,"INCLINATION":53.0539,"RA_OF_ASC_NODE":306.2361,"ARG_OF_PERICENTER":99.6707,"MEAN_ANOMALY":260.4386,"EPHEMERIS_TYPE":0,"CLASSIFICATION_TYPE":"U","NORAD_CAT_ID":46070,"ELEMENT_SET_NO":999,"REV_AT_EPOCH":15723,"BSTAR":0.00046689,"MEAN_MOTION_DOT":6.678e-5,"MEAN_MOTION_DDOT":0},{"OBJECT_NAME":"STARLINK-1538","OBJECT_ID":"2020-055AW","EPOCH":"2023-06-04T19:56:49.828992","MEAN_MOTION":15.06393091,"ECCENTRICITY":0.0001215,"INCLINATION":53.0544,"RA_OF_ASC_NODE":305.5562,"ARG_OF_PERICENTER":110.5847,"MEAN_ANOMALY":249.5272,"EPHEMERIS_TYPE":0,"CLASSIFICATION_TYPE":"U","NORAD_CAT_ID":46071,"ELEMENT_SET_NO":999,"REV_AT_EPOCH":15725,"BSTAR":0.00013666,"MEAN_MOTION_DOT":1.754e-5,"MEAN_MOTION_DDOT":0},{"OBJECT_NAME":"STARLINK-1539","OBJECT_ID":"2020-055AX","EPOCH":"2023-06-05T02:54:46.891584","MEAN_MOTION":15.06400023,"ECCENTRICITY":8.92e-5,"INCLINATION":53.0554,"RA_OF_ASC_NODE":304.2586,"ARG_OF_PERICENTER":95.9813,"MEAN_ANOMALY":264.1278,"EPHEMERIS_TYPE":0,"CLASSIFICATION_TYPE":"U","NORAD_CAT_ID":46072,"ELEMENT_SET_NO":999,"REV_AT_EPOCH":15675,"BSTAR":0.00036965,"MEAN_MOTION_DOT":5.229e-5,"MEAN_MOTION_DDOT":0},{"OBJECT_NAME":"STARLINK-1542","OBJECT_ID":"2020-055AY","EPOCH":"2023-06-04T19:19:40.349568","MEAN_MOTION":15.06400269,"ECCENTRICITY":7.3e-5,"INCLINATION":53.0533,"RA_OF_ASC_NODE":305.6787,"ARG_OF_PERICENTER":90.6253,"MEAN_ANOMALY":269.4819,"EPHEMERIS_TYPE":0,"CLASSIFICATION_TYPE":"U","NORAD_CAT_ID":46073,"ELEMENT_SET_NO":999,"REV_AT_EPOCH":15724,"BSTAR":0.00079187,"MEAN_MOTION_DOT":0.00011533,"MEAN_MOTION_DDOT":0}]
