STARLINK-1561           
1 46056U 20055AF  23155.91667824 -.00387093  00000+0 -22800-2 0  9997
2 46056  53.0438 302.6200 0000631  64.1784 232.5950 15.78514271156761
STARLINK-1564           
1 46058U 20055AH  23155.91038024  .00005336  00000+0  37686-3 0  9997
2 46058  53.0541 325.2051 0000996  59.6737 300.4350 15.06400709156988
STARLINK-1570           
1 46059U 20055AJ  23155.85140212  .00002723  00000+0  20165-3 0  9995
2 46059  53.0546 325.4671 0000747  98.8217 261.2856 15.06392403156937
STARLINK-1572           
1 46060U 20055AK  23156.17945174  .00006518  00000+0  45600-3 0  9990
2 46060  53.0536 323.9991 0000835 108.2281 251.8799 15.06403729156497
STARLINK-1573           
1 46061U 20055AL  23155.90669074  .00014557  00000+0  99387-3 0  9996
2 46061  53.0541 325.2187 0001066  62.7070 297.4028 15.06409249156981
STARLINK-1574           
1 46062U 20055AM  23155.87351934  .00003828  00000+0  27578-3 0  9998
2 46062  53.0539 325.3726 0000947 113.9305 246.1784 15.06394631156940
STARLINK-1577           
1 46063U 20055AN  23155.86983346  .00012069  00000+0  82769-3 0  9996
2 46063  53.0540 325.3846 0000727  87.6633 272.4440 15.06400331156972
STARLINK-1583           
1 46064U 20055AP  23156.16839156  .00009356  00000+0  64599-3 0  9996
2 46064  53.0549 324.0451 0001174  70.5111 289.6005 15.06411243156497
STARLINK-1515           
1 46065U 20055AQ  23155.83018846  .00002731  00000+0  20223-3 0  9991
2 46065  53.0557 305.5607 0001106  97.8561 262.2553 15.06391932157230
STARLINK-1525           
1 46066U 20055AR  23155.83481622  .00002318  00000+0  17445-3 0  9991
2 46066  53.0544 305.5408 0001088 105.7779 254.3330 15.06393111157242
STARLINK-1529           
1 46067U 20055AS  23156.10294746  .00011129  00000+0  76482-3 0  9998
2 46067  53.0547 304.3299 0000907  73.0459 287.0629 15.06400947156757
STARLINK-1532           
1 46068U 20055AT  23156.11400081  .00020807  00000+0  14115-2 0  9998
2 46068  53.0544 304.2792 0000905  79.6381 280.4710 15.06403336156759
STARLINK-1533           
1 46069U 20055AU  23155.79795337  .00008515  00000+0  58995-3 0  9990
2 46069  53.0543 305.7076 0000828  88.1617 271.9466 15.06393791157253
STARLINK-1536           
1 46070U 20055AV  23155.68000765  .00006678  00000+0  46689-3 0  9999
2 46070  53.0539 306.2361 0000922  99.6707 260.4386 15.06393289157239
STARLINK-1538           
1 46071U 20055AW  23155.83113228  .00001754  00000+0  13666-3 0  9995
2 46071  53.0544 305.5562 0001215 110.5847 249.5272 15.06393091157250
STARLINK-1539           
1 46072U 20055AX  23156.12137606  .00005229  00000+0  36965-3 0  9993
2 46072  53.0554 304.2586 0000892  95.9813 264.1278 15.06400023156750
STARLINK-1542           
1 46073U 20055AY  23155.80532812  .00011533  00000+0  79187-3 0  9994
2 46073  53.0533 305.6787 0000730  90.6253 269.4819 15.06400269157243
